[{"OBJECT_NAME":"STARLINK-1362","OBJECT_ID":"2020-025H","EPOCH":"2026-03-09T11:02:25.448928","MEAN_MOTION":15.30206066,"ECCENTRICITY":0.00013706,"INCLINATION":53.1615,"RA_OF_ASC_NODE":102.0656,"ARG_OF_PERICENTER":93.096,"MEAN_ANOMALY":267.0198,"EPHEMERIS_TYPE":0,"CLASSIFICATION_TYPE":"U","NORAD_CAT_ID":45538,"ELEMENT_SET_NO":999,"REV_AT_EPOCH":32514,"BSTAR":5.6519661e-5,"MEAN_MOTION_DOT":1.315e-5,"MEAN_MOTION_DDOT":0},{"OBJECT_NAME":"STARLINK-31704","OBJECT_ID":"2024-076Y","EPOCH":"2026-03-09T22:00:01.999584","MEAN_MOTION":15.30892355,"ECCENTRICITY":0.00079744,"INCLINATION":42.9978,"RA_OF_ASC_NODE":323.2923,"ARG_OF_PERICENTER":240.5046,"MEAN_ANOMALY":200.4144,"EPHEMERIS_TYPE":0,"CLASSIFICATION_TYPE":"U","NORAD_CAT_ID":59586,"ELEMENT_SET_NO":999,"REV_AT_EPOCH":581,"BSTAR":0.0024766131,"MEAN_MOTION_DOT":0.00076042,"MEAN_MOTION_DDOT":0}]
